{
  "type": "FeatureCollection",
  "features": [
    {
      "type": "Feature",
      "properties": {
        "norad_id": 66481,
        "name": "STARLINK-35698",
        "group": "last-30-days",
        "lat": 28.710371704746535,
        "lon": -138.69130573409123,
        "alt_km": 411.1097790864578,
        "timestamp": "2025-12-11T15:53:38.292533+00:00",
        "meta_object_name": "STARLINK-35698",
        "meta_object_id": "2025-262AB",
        "meta_epoch": "2025-12-11T07:35:05.792928",
        "meta_mean_motion": 15.50681189,
        "meta_eccentricity": 0.00023047,
        "meta_inclination": 43.0002,
        "meta_ra_of_asc_node": 79.3339,
        "meta_arg_of_pericenter": 280.8097,
        "meta_mean_anomaly": 79.2504,
        "meta_ephemeris_type": 0,
        "meta_classification_type": "U",
        "meta_norad_cat_id": 66481,
        "meta_element_set_no": 999,
        "meta_rev_at_epoch": 534,
        "meta_bstar": 0.003181564,
        "meta_mean_motion_dot": 0.00191646,
        "meta_mean_motion_ddot": 0,
        "tle_line1": "1 66481U 25262AB  25345.31603927  .00191646  00000+0  31816-2 0  9999",
        "tle_line2": "2 66481  43.0002  79.3339 0002304 280.8097  79.2504 15.50681189  5346"
      },
      "geometry": {
        "type": "Point",
        "coordinates": [
          -138.69130573409123,
          28.710371704746535
        ]
      }
    },
    {
      "type": "Feature",
      "properties": {
        "norad_id": 66482,
        "name": "STARLINK-35648",
        "group": "last-30-days",
        "lat": 27.67098357417055,
        "lon": -136.9400791221266,
        "alt_km": 410.9226094853884,
        "timestamp": "2025-12-11T15:53:38.292544+00:00",
        "meta_object_name": "STARLINK-35648",
        "meta_object_id": "2025-262AC",
        "meta_epoch": "2025-12-11T07:34:36.215616",
        "meta_mean_motion": 15.50653247,
        "meta_eccentricity": 0.00017258,
        "meta_inclination": 43.0002,
        "meta_ra_of_asc_node": 79.3314,
        "meta_arg_of_pericenter": 266.5381,
        "meta_mean_anomaly": 93.5281,
        "meta_ephemeris_type": 0,
        "meta_classification_type": "U",
        "meta_norad_cat_id": 66482,
        "meta_element_set_no": 999,
        "meta_rev_at_epoch": 518,
        "meta_bstar": 0.0023251527,
        "meta_mean_motion_dot": 0.00138878,
        "meta_mean_motion_ddot": 0,
        "tle_line1": "1 66482U 25262AC  25345.31569694  .00138878  00000+0  23252-2 0  9995",
        "tle_line2": "2 66482  43.0002  79.3314 0001725 266.5381  93.5281 15.50653247  5180"
      },
      "geometry": {
        "type": "Point",
        "coordinates": [
          -136.9400791221266,
          27.67098357417055
        ]
      }
    },
    {
      "type": "Feature",
      "properties": {
        "norad_id": 66483,
        "name": "STARLINK-35654",
        "group": "last-30-days",
        "lat": 26.54169823105948,
        "lon": -135.11629278421924,
        "alt_km": 411.20998076696105,
        "timestamp": "2025-12-11T15:53:38.292557+00:00",
        "meta_object_name": "STARLINK-35654",
        "meta_object_id": "2025-262AD",
        "meta_epoch": "2025-12-11T07:34:06.625344",
        "meta_mean_motion": 15.50687871,
        "meta_eccentricity": 0.00021518,
        "meta_inclination": 43.0004,
        "meta_ra_of_asc_node": 79.3265,
        "meta_arg_of_pericenter": 277.1436,
        "meta_mean_anomaly": 82.918,
        "meta_ephemeris_type": 0,
        "meta_classification_type": "U",
        "meta_norad_cat_id": 66483,
        "meta_element_set_no": 999,
        "meta_rev_at_epoch": 534,
        "meta_bstar": 0.0034441975,
        "meta_mean_motion_dot": 0.0020798,
        "meta_mean_motion_ddot": 0,
        "tle_line1": "1 66483U 25262AD  25345.31535446  .00207980  00000+0  34442-2 0  9998",
        "tle_line2": "2 66483  43.0004  79.3265 0002151 277.1436  82.9180 15.50687871  5349"
      },
      "geometry": {
        "type": "Point",
        "coordinates": [
          -135.11629278421924,
          26.54169823105948
        ]
      }
    },
    {
      "type": "Feature",
      "properties": {
        "norad_id": 66484,
        "name": "STARLINK-35371",
        "group": "last-30-days",
        "lat": 25.41278923865271,
        "lon": -133.3609630787064,
        "alt_km": 411.1279330725665,
        "timestamp": "2025-12-11T15:53:38.292568+00:00",
        "meta_object_name": "STARLINK-35371",
        "meta_object_id": "2025-262AE",
        "meta_epoch": "2025-12-11T07:33:36.950400",
        "meta_mean_motion": 15.50698591,
        "meta_eccentricity": 0.00019509,
        "meta_inclination": 43.0002,
        "meta_ra_of_asc_node": 79.3252,
        "meta_arg_of_pericenter": 272.5859,
        "meta_mean_anomaly": 87.4777,
        "meta_ephemeris_type": 0,
        "meta_classification_type": "U",
        "meta_norad_cat_id": 66484,
        "meta_element_set_no": 999,
        "meta_rev_at_epoch": 534,
        "meta_bstar": 0.0036687521,
        "meta_mean_motion_dot": 0.00222049,
        "meta_mean_motion_ddot": 0,
        "tle_line1": "1 66484U 25262AE  25345.31501100  .00222049  00000+0  36688-2 0  9996",
        "tle_line2": "2 66484  43.0002  79.3252 0001950 272.5859  87.4777 15.50698591  5341"
      },
      "geometry": {
        "type": "Point",
        "coordinates": [
          -133.3609630787064,
          25.41278923865271
        ]
      }
    },
    {
      "type": "Feature",
      "properties": {
        "norad_id": 66485,
        "name": "STARLINK-34774",
        "group": "last-30-days",
        "lat": -25.871387343588474,
        "lon": 100.2595860694745,
        "alt_km": 445.4799021079216,
        "timestamp": "2025-12-11T15:53:38.292581+00:00",
        "meta_object_name": "STARLINK-34774",
        "meta_object_id": "2025-263A",
        "meta_epoch": "2025-12-11T06:00:02.999808",
        "meta_mean_motion": 15.40666627,
        "meta_eccentricity": 0.00020633,
        "meta_inclination": 43.0009,
        "meta_ra_of_asc_node": 133.9949,
        "meta_arg_of_pericenter": 274.3121,
        "meta_mean_anomaly": 276.9091,
        "meta_ephemeris_type": 0,
        "meta_classification_type": "U",
        "meta_norad_cat_id": 66485,
        "meta_element_set_no": 999,
        "meta_rev_at_epoch": 539,
        "meta_bstar": 0.00061372782,
        "meta_mean_motion_dot": 0.00025391,
        "meta_mean_motion_ddot": 0,
        "tle_line1": "1 66485U 25263A   25345.25003472  .00025391  00000+0  61373-3 0  9991",
        "tle_line2": "2 66485  43.0009 133.9949 0002063 274.3121 276.9091 15.40666627  5390"
      },
      "geometry": {
        "type": "Point",
        "coordinates": [
          100.2595860694745,
          -25.871387343588474
        ]
      }
    },
    {
      "type": "Feature",
      "properties": {
        "norad_id": 66486,
        "name": "STARLINK-34844",
        "group": "last-30-days",
        "lat": 14.770104199402441,
        "lon": 147.90257448707058,
        "alt_km": 413.3187643541778,
        "timestamp": "2025-12-11T15:53:38.292591+00:00",
        "meta_object_name": "STARLINK-34844",
        "meta_object_id": "2025-263B",
        "meta_epoch": "2025-12-11T06:00:02.999808",
        "meta_mean_motion": 15.50604978,
        "meta_eccentricity": 0.00014918,
        "meta_inclination": 43.0006,
        "meta_ra_of_asc_node": 133.8791,
        "meta_arg_of_pericenter": 257.3151,
        "meta_mean_anomaly": 340.9395,
        "meta_ephemeris_type": 0,
        "meta_classification_type": "U",
        "meta_norad_cat_id": 66486,
        "meta_element_set_no": 999,
        "meta_rev_at_epoch": 534,
        "meta_bstar": -0.0011673225,
        "meta_mean_motion_dot": -0.00068292,
        "meta_mean_motion_ddot": 0,
        "tle_line1": "1 66486U 25263B   25345.25003472 -.00068292  00000+0 -11673-2 0  9998",
        "tle_line2": "2 66486  43.0006 133.8791 0001491 257.3151 340.9395 15.50604978  5346"
      },
      "geometry": {
        "type": "Point",
        "coordinates": [
          147.90257448707058,
          14.770104199402441
        ]
      }
    },
    {
      "type": "Feature",
      "properties": {
        "norad_id": 66487,
        "name": "STARLINK-34733",
        "group": "last-30-days",
        "lat": 15.013427407158172,
        "lon": 148.19426463153496,
        "alt_km": 418.8053940452728,
        "timestamp": "2025-12-11T15:53:38.292604+00:00",
        "meta_object_name": "STARLINK-34733",
        "meta_object_id": "2025-263C",
        "meta_epoch": "2025-12-11T06:00:02.999808",
        "meta_mean_motion": 15.5048624,
        "meta_eccentricity": 0.00015183,
        "meta_inclination": 43.0005,
        "meta_ra_of_asc_node": 133.8752,
        "meta_arg_of_pericenter": 265.3771,
        "meta_mean_anomaly": 334.7842,
        "meta_ephemeris_type": 0,
        "meta_classification_type": "U",
        "meta_norad_cat_id": 66487,
        "meta_element_set_no": 999,
        "meta_rev_at_epoch": 539,
        "meta_bstar": -0.040175049,
        "meta_mean_motion_dot": -0.02087593,
        "meta_mean_motion_ddot": 0,
        "tle_line1": "1 66487U 25263C   25345.25003472 -.02087593  00000+0 -40175-1 0  9994",
        "tle_line2": "2 66487  43.0005 133.8752 0001518 265.3771 334.7842 15.50486240  5393"
      },
      "geometry": {
        "type": "Point",
        "coordinates": [
          148.19426463153496,
          15.013427407158172
        ]
      }
    }
  ]
}